[{"OBJECT_NAME":"CARTOSAT-2C","OBJECT_ID":"2016-040A","EPOCH":"2026-03-09T22:26:22.952832","MEAN_MOTION":15.19225576,"ECCENTRICITY":0.00104304,"INCLINATION":97.4605,"RA_OF_ASC_NODE":130.2157,"ARG_OF_PERICENTER":119.7256,"MEAN_ANOMALY":240.5018,"EPHEMERIS_TYPE":0,"CLASSIFICATION_TYPE":"U","NORAD_CAT_ID":41599,"ELEMENT_SET_NO":999,"REV_AT_EPOCH":53864,"BSTAR":0.0002054492,"MEAN_MOTION_DOT":4.264e-5,"MEAN_MOTION_DDOT":0},{"OBJECT_NAME":"CONNECTA IOT-2","OBJECT_ID":"2024-149BG","EPOCH":"2026-03-09T19:22:15.516192","MEAN_MOTION":15.23021673,"ECCENTRICITY":0.00053374,"INCLINATION":97.3884,"RA_OF_ASC_NODE":148.507,"ARG_OF_PERICENTER":325.6165,"MEAN_ANOMALY":34.4726,"EPHEMERIS_TYPE":0,"CLASSIFICATION_TYPE":"U","NORAD_CAT_ID":60522,"ELEMENT_SET_NO":999,"REV_AT_EPOCH":8676,"BSTAR":0.00026280259,"MEAN_MOTION_DOT":6.116e-5,"MEAN_MOTION_DDOT":0}]
