CARTOSAT-2C             
1 41599U 16040A   26068.93498788  .00004264  00000+0  20545-3 0  9991
2 41599  97.4605 130.2157 0010430 119.7256 240.5018 15.19225576538648
CONNECTA IOT-2          
1 60522U 24149BG  26068.80712403  .00006116  00000+0  26280-3 0  9996
2 60522  97.3884 148.5070 0005337 325.6165  34.4726 15.23021673 86760
